{
  "region": "Sierra Nevada",
  "bbox": {
    "south": 36.8,
    "north": 37.3,
    "west": -3.5,
    "east": -2.8
  },
  "collectedAt": "2025-10-14T14:34:18.676Z",
  "stats": {
    "totalTracks": 91,
    "totalLength": 159.0015302157961,
    "avgLength": 1.747269562810946,
    "avgDifficulty": 51.42857142857143,
    "clusterCount": 8
  },
  "clusters": [
    {
      "id": "cluster_1",
      "center": {
        "lat": 36.91752792325582,
        "lon": -3.3709543906976736
      },
      "bbox": {
        "minLat": 36.8502961,
        "maxLat": 36.9989412,
        "minLon": -3.502544,
        "maxLon": -3.2099179
      },
      "trackCount": 43,
      "totalLength": 69.43998575815544,
      "avgDifficulty": 49,
      "nearestTown": "Carril de la Cebadilla",
      "trackIds": [
        35476553,
        44061502,
        44143187,
        73131860,
        125156936,
        155711527,
        164466765,
        193003756,
        199450459,
        203155617,
        203165798,
        220061996,
        225425392,
        226111298,
        226562078,
        255460991,
        341915538,
        342142039,
        342164783,
        343060962,
        343060969,
        343065108,
        343961525,
        343961526,
        343963252,
        343989261,
        385856336,
        404451968,
        408484976,
        408485934,
        472774191,
        476110377,
        477005794,
        582867615,
        685610569,
        685610578,
        776057525,
        778219662,
        894044192,
        1065087101,
        1250631466,
        1335601850,
        1414972232
      ]
    },
    {
      "id": "cluster_3",
      "center": {
        "lat": 37.2262233,
        "lon": -2.98647075625
      },
      "bbox": {
        "minLat": 37.1459312,
        "maxLat": 37.3039692,
        "minLon": -3.132561,
        "maxLon": -2.7993929
      },
      "trackCount": 16,
      "totalLength": 23.482018951706166,
      "avgDifficulty": 48,
      "nearestTown": "Unbekannt",
      "trackIds": [
        102162094,
        102248202,
        202318820,
        213841165,
        213846511,
        301495374,
        349825944,
        349826030,
        689178753,
        696307374,
        807977292,
        1051865387,
        1054468537,
        1299236496,
        1422519426,
        1422519433
      ]
    },
    {
      "id": "cluster_5",
      "center": {
        "lat": 37.03523937272727,
        "lon": -3.0882109909090905
      },
      "bbox": {
        "minLat": 36.9319059,
        "maxLat": 37.2188125,
        "minLon": -3.137271,
        "maxLon": -3.0166498
      },
      "trackCount": 11,
      "totalLength": 12.77717211825652,
      "avgDifficulty": 63,
      "nearestTown": "Unbekannt",
      "trackIds": [
        203125529,
        331209927,
        615808848,
        743456710,
        743456725,
        807977293,
        1213827278,
        1213833495,
        1214086200,
        1418405635,
        1431691974
      ]
    },
    {
      "id": "cluster_2",
      "center": {
        "lat": 37.240775633333335,
        "lon": -3.3859035
      },
      "bbox": {
        "minLat": 37.193162,
        "maxLat": 37.2966501,
        "minLon": -3.4980894,
        "maxLon": -3.2474115
      },
      "trackCount": 9,
      "totalLength": 21.990749048135783,
      "avgDifficulty": 59,
      "nearestTown": "Vía de Güéjar Sierra al Tocón",
      "trackIds": [
        101369766,
        202117668,
        663352006,
        667535041,
        947858910,
        1019264250,
        1125808723,
        1150459004,
        1323100809
      ]
    },
    {
      "id": "cluster_4",
      "center": {
        "lat": 36.96290504444445,
        "lon": -2.8867891444444442
      },
      "bbox": {
        "minLat": 36.8351314,
        "maxLat": 37.027355,
        "minLon": -2.9465205,
        "maxLon": -2.7838702
      },
      "trackCount": 9,
      "totalLength": 20.776010172802565,
      "avgDifficulty": 46,
      "nearestTown": "Pista los Cerecillos",
      "trackIds": [
        102625881,
        224115667,
        224115674,
        255242755,
        639109929,
        639111048,
        763765775,
        1016406544,
        1083319916
      ]
    },
    {
      "id": "cluster_6",
      "center": {
        "lat": 37.2729875,
        "lon": -3.2230681
      },
      "bbox": {
        "minLat": 37.2729875,
        "maxLat": 37.2729875,
        "minLon": -3.2230681,
        "maxLon": -3.2230681
      },
      "trackCount": 1,
      "totalLength": 4.891371192761135,
      "avgDifficulty": 40,
      "nearestTown": "Unbekannt",
      "trackIds": [
        204496884
      ]
    },
    {
      "id": "cluster_7",
      "center": {
        "lat": 36.8194845,
        "lon": -3.0677363
      },
      "bbox": {
        "minLat": 36.8194845,
        "maxLat": 36.8194845,
        "minLon": -3.0677363,
        "maxLon": -3.0677363
      },
      "trackCount": 1,
      "totalLength": 1.7401131961105265,
      "avgDifficulty": 55,
      "nearestTown": "Unbekannt",
      "trackIds": [
        579034155
      ]
    },
    {
      "id": "cluster_8",
      "center": {
        "lat": 36.8154691,
        "lon": -3.4880802
      },
      "bbox": {
        "minLat": 36.8154691,
        "maxLat": 36.8154691,
        "minLon": -3.4880802,
        "maxLon": -3.4880802
      },
      "trackCount": 1,
      "totalLength": 3.904109777867943,
      "avgDifficulty": 70,
      "nearestTown": "Camino Llano de los Pozos",
      "trackIds": [
        974148566
      ]
    }
  ],
  "tracks": [
    {
      "id": 35476553,
      "name": "Carril de la Cebadilla",
      "length": 2.24211822039426,
      "center": {
        "lat": 36.9655272,
        "lon": -3.3526844
      },
      "difficulty": 45,
      "surface": "gravel",
      "tracktype": "grade2",
      "tags": {
        "highway": "track",
        "name": "Carril de la Cebadilla",
        "surface": "gravel",
        "tracktype": "grade2"
      }
    },
    {
      "id": 44061502,
      "name": "Unbenannt",
      "length": 1.5539486058319627,
      "center": {
        "lat": 36.9989412,
        "lon": -3.2699443
      },
      "difficulty": 40,
      "surface": "compacted",
      "tracktype": "grade2",
      "tags": {
        "highway": "track",
        "surface": "compacted",
        "tracktype": "grade2"
      }
    },
    {
      "id": 44143187,
      "name": "Unbenannt",
      "length": 0.6163995182219646,
      "center": {
        "lat": 36.9663968,
        "lon": -3.3599895
      },
      "difficulty": 65,
      "surface": "ground",
      "tracktype": "grade3",
      "tags": {
        "highway": "track",
        "mtb": "yes",
        "surface": "ground",
        "tracktype": "grade3"
      }
    },
    {
      "id": 73131860,
      "name": "Unbenannt",
      "length": 1.0346445941297302,
      "center": {
        "lat": 36.9455561,
        "lon": -3.2420239
      },
      "difficulty": 70,
      "surface": "dirt",
      "tracktype": "grade3",
      "tags": {
        "bicycle": "yes",
        "foot": "yes",
        "highway": "track",
        "surface": "dirt",
        "tracktype": "grade3"
      }
    },
    {
      "id": 101369766,
      "name": "Unbenannt",
      "length": 1.9498857941745253,
      "center": {
        "lat": 37.2966501,
        "lon": -3.4602666
      },
      "difficulty": 65,
      "surface": "ground",
      "tracktype": "grade3",
      "tags": {
        "highway": "track",
        "surface": "ground",
        "tracktype": "grade3"
      }
    },
    {
      "id": 102162094,
      "name": "Unbenannt",
      "length": 1.184758211926162,
      "center": {
        "lat": 37.2892463,
        "lon": -2.9261653
      },
      "difficulty": 40,
      "surface": "compacted",
      "tracktype": "grade2",
      "tags": {
        "highway": "track",
        "source": "PNOA",
        "source:date": "2008",
        "surface": "compacted",
        "tracktype": "grade2"
      }
    },
    {
      "id": 102248202,
      "name": "Unbenannt",
      "length": 0.6521115935467918,
      "center": {
        "lat": 37.1878215,
        "lon": -3.0636224
      },
      "difficulty": 50,
      "surface": "unpaved",
      "tracktype": "grade2",
      "tags": {
        "highway": "unclassified",
        "source": "PNOA",
        "source:date": "2008",
        "surface": "unpaved",
        "tracktype": "grade2"
      }
    },
    {
      "id": 102625881,
      "name": "Unbenannt",
      "length": 7.0512156525942435,
      "center": {
        "lat": 36.8838481,
        "lon": -2.7838702
      },
      "difficulty": 40,
      "surface": "compacted",
      "tracktype": "grade2",
      "tags": {
        "highway": "track",
        "smoothness": "very_bad",
        "surface": "compacted",
        "tracktype": "grade2"
      }
    },
    {
      "id": 125156936,
      "name": "Unbenannt",
      "length": 0.7087876504713359,
      "center": {
        "lat": 36.9232885,
        "lon": -3.3005568
      },
      "difficulty": 70,
      "surface": "dirt",
      "tracktype": "grade3",
      "tags": {
        "access": "yes",
        "bicycle": "yes",
        "designation": "Connection to Busquistar",
        "foot": "yes",
        "highway": "track",
        "source": "Local knowledge",
        "surface": "dirt",
        "tracktype": "grade3"
      }
    },
    {
      "id": 155711527,
      "name": "Unbenannt",
      "length": 2.193272828716262,
      "center": {
        "lat": 36.8912329,
        "lon": -3.411841
      },
      "difficulty": 45,
      "surface": "gravel",
      "tracktype": "grade2",
      "tags": {
        "bicycle": "yes",
        "highway": "track",
        "horse": "yes",
        "motor_vehicle": "yes",
        "surface": "gravel",
        "tracktype": "grade2"
      }
    },
    {
      "id": 164466765,
      "name": "Unbenannt",
      "length": 1.9390109368406627,
      "center": {
        "lat": 36.8852375,
        "lon": -3.4368158
      },
      "difficulty": 50,
      "surface": "unpaved",
      "tracktype": "grade2",
      "tags": {
        "bicycle": "yes",
        "foot": "yes",
        "highway": "track",
        "motorcar": "yes",
        "surface": "unpaved",
        "tracktype": "grade2",
        "width": "2"
      }
    },
    {
      "id": 193003756,
      "name": "Pista Juviles",
      "length": 2.4086003918253973,
      "center": {
        "lat": 36.9631379,
        "lon": -3.2099179
      },
      "difficulty": 45,
      "surface": "gravel",
      "tracktype": "grade2",
      "tags": {
        "bicycle": "yes",
        "highway": "track",
        "name": "Pista Juviles",
        "surface": "gravel",
        "tracktype": "grade2",
        "width": "5"
      }
    },
    {
      "id": 199450459,
      "name": "Gran Recorrido 7",
      "length": 0.6328324174924865,
      "center": {
        "lat": 36.9509679,
        "lon": -3.222078
      },
      "difficulty": 45,
      "surface": "gravel",
      "tracktype": "grade2",
      "tags": {
        "foot": "yes",
        "highway": "track",
        "name": "Gran Recorrido 7",
        "surface": "gravel",
        "tracktype": "grade2"
      }
    },
    {
      "id": 202117668,
      "name": "Vía de Güéjar Sierra al Tocón",
      "length": 7.167659333096976,
      "center": {
        "lat": 37.207441,
        "lon": -3.362696
      },
      "difficulty": 65,
      "surface": "ground",
      "tracktype": "grade3",
      "tags": {
        "highway": "unclassified",
        "name": "Vía de Güéjar Sierra al Tocón",
        "source": "GPS",
        "surface": "ground",
        "tracktype": "grade3"
      }
    },
    {
      "id": 202318820,
      "name": "Unbenannt",
      "length": 0.841167530427057,
      "center": {
        "lat": 37.14685,
        "lon": -3.048384
      },
      "difficulty": 60,
      "surface": "fine_gravel",
      "tracktype": "grade3",
      "tags": {
        "highway": "track",
        "source": "GPS",
        "surface": "fine_gravel",
        "tracktype": "grade3"
      }
    },
    {
      "id": 203125529,
      "name": "Unbenannt",
      "length": 3.5992814586050135,
      "center": {
        "lat": 37.1028167,
        "lon": -3.0166498
      },
      "difficulty": 65,
      "surface": "ground",
      "tracktype": "grade3",
      "tags": {
        "foot": "yes",
        "highway": "track",
        "mtb:scale": "1",
        "smoothness": "bad",
        "source": "GPS",
        "surface": "ground",
        "tracktype": "grade3"
      }
    },
    {
      "id": 203155617,
      "name": "Pista Juviles",
      "length": 0.8624630868145094,
      "center": {
        "lat": 36.9705598,
        "lon": -3.211708
      },
      "difficulty": 45,
      "surface": "gravel",
      "tracktype": "grade2",
      "tags": {
        "bicycle": "yes",
        "highway": "track",
        "name": "Pista Juviles",
        "surface": "gravel",
        "tracktype": "grade2",
        "width": "5"
      }
    },
    {
      "id": 203165798,
      "name": "Unbenannt",
      "length": 2.030457584838405,
      "center": {
        "lat": 36.9489171,
        "lon": -3.3404908
      },
      "difficulty": 40,
      "surface": "compacted",
      "tracktype": "grade2",
      "tags": {
        "bicycle": "yes",
        "highway": "track",
        "source": "GPS",
        "surface": "compacted",
        "tracktype": "grade2"
      }
    },
    {
      "id": 204496884,
      "name": "Unbenannt",
      "length": 4.891371192761135,
      "center": {
        "lat": 37.2729875,
        "lon": -3.2230681
      },
      "difficulty": 40,
      "surface": "compacted",
      "tracktype": "grade2",
      "tags": {
        "highway": "track",
        "noname": "yes",
        "surface": "compacted",
        "tracktype": "grade2"
      }
    },
    {
      "id": 213841165,
      "name": "Unbenannt",
      "length": 1.0590727907328579,
      "center": {
        "lat": 37.1847816,
        "lon": -3.0642284
      },
      "difficulty": 40,
      "surface": "compacted",
      "tracktype": "grade2",
      "tags": {
        "highway": "track",
        "surface": "compacted",
        "tracktype": "grade2"
      }
    },
    {
      "id": 213846511,
      "name": "Unbenannt",
      "length": 4.576686638381553,
      "center": {
        "lat": 37.1459312,
        "lon": -3.0586916
      },
      "difficulty": 40,
      "surface": "compacted",
      "tracktype": "grade2",
      "tags": {
        "highway": "track",
        "smoothness": "bad",
        "surface": "compacted",
        "tracktype": "grade2"
      }
    },
    {
      "id": 220061996,
      "name": "Carril de la Cebadilla",
      "length": 0.7298458238849536,
      "center": {
        "lat": 36.9861076,
        "lon": -3.3513101
      },
      "difficulty": 45,
      "surface": "gravel",
      "tracktype": "grade2",
      "tags": {
        "highway": "track",
        "mtb": "yes",
        "name": "Carril de la Cebadilla",
        "surface": "gravel",
        "tracktype": "grade2"
      }
    },
    {
      "id": 224115667,
      "name": "Pista los Cerecillos",
      "length": 5.917714966288741,
      "center": {
        "lat": 37.027355,
        "lon": -2.905947
      },
      "difficulty": 40,
      "surface": "compacted",
      "tracktype": "grade2",
      "tags": {
        "highway": "track",
        "name": "Pista los Cerecillos",
        "source": "PNOA",
        "surface": "compacted",
        "tracktype": "grade2"
      }
    },
    {
      "id": 224115674,
      "name": "Unbenannt",
      "length": 1.9530926762231624,
      "center": {
        "lat": 37.0225641,
        "lon": -2.8933922
      },
      "difficulty": 45,
      "surface": "gravel",
      "tracktype": "grade2",
      "tags": {
        "highway": "track",
        "surface": "gravel",
        "tracktype": "grade2"
      }
    },
    {
      "id": 225425392,
      "name": "Unbenannt",
      "length": 3.87069109421284,
      "center": {
        "lat": 36.9218242,
        "lon": -3.3099623
      },
      "difficulty": 45,
      "surface": "gravel",
      "tracktype": "grade2",
      "tags": {
        "highway": "track",
        "surface": "gravel",
        "tracktype": "grade2"
      }
    },
    {
      "id": 226111298,
      "name": "Unbenannt",
      "length": 1.7879838724893622,
      "center": {
        "lat": 36.9551054,
        "lon": -3.3131127
      },
      "difficulty": 70,
      "surface": "dirt",
      "tracktype": "grade3",
      "tags": {
        "bicycle": "yes",
        "highway": "track",
        "mtb": "yes",
        "source": "GPS",
        "surface": "dirt",
        "tracktype": "grade3"
      }
    },
    {
      "id": 226562078,
      "name": "Unbenannt",
      "length": 2.6183949590154234,
      "center": {
        "lat": 36.9305852,
        "lon": -3.4962277
      },
      "difficulty": 45,
      "surface": "gravel",
      "tracktype": "grade2",
      "tags": {
        "highway": "track",
        "surface": "gravel",
        "tracktype": "grade2"
      }
    },
    {
      "id": 255242755,
      "name": "Unbenannt",
      "length": 0.5976715630502787,
      "center": {
        "lat": 36.9989541,
        "lon": -2.8907881
      },
      "difficulty": 40,
      "surface": "compacted",
      "tracktype": "grade2",
      "tags": {
        "highway": "track",
        "surface": "compacted",
        "tracktype": "grade2"
      }
    },
    {
      "id": 255460991,
      "name": "Unbenannt",
      "length": 0.9926561461890823,
      "center": {
        "lat": 36.8953047,
        "lon": -3.411511
      },
      "difficulty": 50,
      "surface": "unpaved",
      "tracktype": "grade2",
      "tags": {
        "highway": "track",
        "maxspeed": "30",
        "oneway": "no",
        "surface": "unpaved",
        "tracktype": "grade2"
      }
    },
    {
      "id": 301495374,
      "name": "Unbenannt",
      "length": 1.4741589320029411,
      "center": {
        "lat": 37.1961433,
        "lon": -2.9941562
      },
      "difficulty": 40,
      "surface": "compacted",
      "tracktype": "grade2",
      "tags": {
        "highway": "track",
        "surface": "compacted",
        "tracktype": "grade2"
      }
    },
    {
      "id": 331209927,
      "name": "Unbenannt",
      "length": 1.7311794363548403,
      "center": {
        "lat": 37.2063865,
        "lon": -3.1310292
      },
      "difficulty": 55,
      "surface": "gravel",
      "tracktype": "grade3",
      "tags": {
        "bicycle": "yes",
        "highway": "track",
        "incline": "down",
        "surface": "gravel",
        "tracktype": "grade3"
      }
    },
    {
      "id": 341915538,
      "name": "Unbenannt",
      "length": 5.042597117260302,
      "center": {
        "lat": 36.8637782,
        "lon": -3.4170022
      },
      "difficulty": 45,
      "surface": "gravel",
      "tracktype": "grade2",
      "tags": {
        "bicycle": "yes",
        "foot": "yes",
        "highway": "track",
        "horse": "yes",
        "lit": "no",
        "oneway": "no",
        "smoothness": "very_bad",
        "surface": "gravel",
        "tracktype": "grade2"
      }
    },
    {
      "id": 342142039,
      "name": "Unbenannt",
      "length": 1.4840018563430788,
      "center": {
        "lat": 36.9021435,
        "lon": -3.3701007
      },
      "difficulty": 45,
      "surface": "gravel",
      "tracktype": "grade2",
      "tags": {
        "highway": "track",
        "surface": "gravel",
        "tracktype": "grade2"
      }
    },
    {
      "id": 342164783,
      "name": "Unbenannt",
      "length": 1.276729669347315,
      "center": {
        "lat": 36.8638673,
        "lon": -3.4153669
      },
      "difficulty": 45,
      "surface": "gravel",
      "tracktype": "grade2",
      "tags": {
        "highway": "track",
        "surface": "gravel",
        "tracktype": "grade2"
      }
    },
    {
      "id": 343060962,
      "name": "Unbenannt",
      "length": 2.5318219897562035,
      "center": {
        "lat": 36.8892573,
        "lon": -3.3779236
      },
      "difficulty": 45,
      "surface": "gravel",
      "tracktype": "grade2",
      "tags": {
        "highway": "track",
        "surface": "gravel",
        "tracktype": "grade2"
      }
    },
    {
      "id": 343060969,
      "name": "Unbenannt",
      "length": 1.3396430362959557,
      "center": {
        "lat": 36.8883515,
        "lon": -3.4008114
      },
      "difficulty": 45,
      "surface": "gravel",
      "tracktype": "grade2",
      "tags": {
        "highway": "track",
        "surface": "gravel",
        "tracktype": "grade2"
      }
    },
    {
      "id": 343065108,
      "name": "Unbenannt",
      "length": 0.9773717677387567,
      "center": {
        "lat": 36.8904358,
        "lon": -3.3779851
      },
      "difficulty": 45,
      "surface": "gravel",
      "tracktype": "grade2",
      "tags": {
        "highway": "track",
        "surface": "gravel",
        "tracktype": "grade2"
      }
    },
    {
      "id": 343961525,
      "name": "Unbenannt",
      "length": 0.6541396609713314,
      "center": {
        "lat": 36.9239343,
        "lon": -3.413682
      },
      "difficulty": 45,
      "surface": "gravel",
      "tracktype": "grade2",
      "tags": {
        "highway": "track",
        "surface": "gravel",
        "tracktype": "grade2"
      }
    },
    {
      "id": 343961526,
      "name": "Unbenannt",
      "length": 1.1999257399414303,
      "center": {
        "lat": 36.9139592,
        "lon": -3.4229853
      },
      "difficulty": 45,
      "surface": "gravel",
      "tracktype": "grade2",
      "tags": {
        "highway": "track",
        "surface": "gravel",
        "tracktype": "grade2"
      }
    },
    {
      "id": 343963252,
      "name": "Unbenannt",
      "length": 0.9765206435406211,
      "center": {
        "lat": 36.9123732,
        "lon": -3.4202322
      },
      "difficulty": 45,
      "surface": "gravel",
      "tracktype": "grade2",
      "tags": {
        "highway": "track",
        "surface": "gravel",
        "tracktype": "grade2"
      }
    },
    {
      "id": 343989261,
      "name": "Unbenannt",
      "length": 1.104576909595157,
      "center": {
        "lat": 36.8933203,
        "lon": -3.4056519
      },
      "difficulty": 45,
      "surface": "gravel",
      "tracktype": "grade2",
      "tags": {
        "highway": "track",
        "surface": "gravel",
        "tracktype": "grade2"
      }
    },
    {
      "id": 349825944,
      "name": "Unbenannt",
      "length": 0.9618193255281692,
      "center": {
        "lat": 37.186289,
        "lon": -3.0684366
      },
      "difficulty": 50,
      "surface": "unpaved",
      "tracktype": "grade2",
      "tags": {
        "highway": "unclassified",
        "source": "PNOA",
        "source:date": "2008",
        "surface": "unpaved",
        "tracktype": "grade2"
      }
    },
    {
      "id": 349826030,
      "name": "Unbenannt",
      "length": 1.9994733950520958,
      "center": {
        "lat": 37.29592,
        "lon": -2.9245075
      },
      "difficulty": 40,
      "surface": "compacted",
      "tracktype": "grade2",
      "tags": {
        "highway": "track",
        "surface": "compacted",
        "tracktype": "grade2"
      }
    },
    {
      "id": 385856336,
      "name": "Lugar Cortijo Bellugas",
      "length": 0.7153269810454355,
      "center": {
        "lat": 36.8948278,
        "lon": -3.3744611
      },
      "difficulty": 45,
      "surface": "gravel",
      "tracktype": "grade2",
      "tags": {
        "highway": "track",
        "name": "Lugar Cortijo Bellugas",
        "surface": "gravel",
        "tracktype": "grade2"
      }
    },
    {
      "id": 404451968,
      "name": "Unbenannt",
      "length": 0.6318142143816015,
      "center": {
        "lat": 36.8875704,
        "lon": -3.3887333
      },
      "difficulty": 45,
      "surface": "gravel",
      "tracktype": "grade2",
      "tags": {
        "highway": "track",
        "surface": "gravel",
        "tracktype": "grade2"
      }
    },
    {
      "id": 408484976,
      "name": "Unbenannt",
      "length": 4.004916328492972,
      "center": {
        "lat": 36.8646858,
        "lon": -3.4261331
      },
      "difficulty": 45,
      "surface": "gravel",
      "tracktype": "grade2",
      "tags": {
        "highway": "track",
        "oneway": "no",
        "surface": "gravel",
        "tracktype": "grade2"
      }
    },
    {
      "id": 408485934,
      "name": "Unbenannt",
      "length": 1.8996598824067037,
      "center": {
        "lat": 36.8502961,
        "lon": -3.4296165
      },
      "difficulty": 55,
      "surface": "gravel",
      "tracktype": "grade3",
      "tags": {
        "highway": "track",
        "surface": "gravel",
        "tracktype": "grade3"
      }
    },
    {
      "id": 472774191,
      "name": "Unbenannt",
      "length": 0.6808206959797678,
      "center": {
        "lat": 36.875601,
        "lon": -3.45058
      },
      "difficulty": 55,
      "surface": "gravel",
      "tracktype": "grade3",
      "tags": {
        "highway": "track",
        "surface": "gravel",
        "tracktype": "grade3"
      }
    },
    {
      "id": 476110377,
      "name": "Unbenannt",
      "length": 2.104471300234814,
      "center": {
        "lat": 36.8804459,
        "lon": -3.4468197
      },
      "difficulty": 45,
      "surface": "gravel",
      "tracktype": "grade2",
      "tags": {
        "highway": "track",
        "surface": "gravel",
        "tracktype": "grade2"
      }
    },
    {
      "id": 477005794,
      "name": "Unbenannt",
      "length": 1.2533400038653606,
      "center": {
        "lat": 36.8928459,
        "lon": -3.4391889
      },
      "difficulty": 45,
      "surface": "gravel",
      "tracktype": "grade2",
      "tags": {
        "highway": "track",
        "surface": "gravel",
        "tracktype": "grade2"
      }
    },
    {
      "id": 579034155,
      "name": "Unbenannt",
      "length": 1.7401131961105265,
      "center": {
        "lat": 36.8194845,
        "lon": -3.0677363
      },
      "difficulty": 55,
      "surface": "gravel",
      "tracktype": "grade3",
      "tags": {
        "highway": "track",
        "smoothness": "bad",
        "source": "bing",
        "surface": "gravel",
        "tracktype": "grade3"
      }
    },
    {
      "id": 582867615,
      "name": "Unbenannt",
      "length": 1.7282251156100072,
      "center": {
        "lat": 36.9448396,
        "lon": -3.2605245
      },
      "difficulty": 60,
      "surface": "unpaved",
      "tracktype": "grade3",
      "tags": {
        "highway": "track",
        "surface": "unpaved",
        "tracktype": "grade3"
      }
    },
    {
      "id": 615808848,
      "name": "Unbenannt",
      "length": 0.7486582313978157,
      "center": {
        "lat": 36.9319059,
        "lon": -3.0545911
      },
      "difficulty": 50,
      "surface": "unpaved",
      "tracktype": "grade2",
      "tags": {
        "highway": "track",
        "surface": "unpaved",
        "tracktype": "grade2"
      }
    },
    {
      "id": 639109929,
      "name": "Paraje la Fabriquilla",
      "length": 1.203644378241346,
      "center": {
        "lat": 37.0103377,
        "lon": -2.888861
      },
      "difficulty": 45,
      "surface": "gravel",
      "tracktype": "grade2",
      "tags": {
        "highway": "track",
        "name": "Paraje la Fabriquilla",
        "surface": "gravel",
        "tracktype": "grade2"
      }
    },
    {
      "id": 639111048,
      "name": "Unbenannt",
      "length": 0.5680455221749721,
      "center": {
        "lat": 37.0199857,
        "lon": -2.8912464
      },
      "difficulty": 45,
      "surface": "gravel",
      "tracktype": "grade2",
      "tags": {
        "highway": "track",
        "surface": "gravel",
        "tracktype": "grade2"
      }
    },
    {
      "id": 663352006,
      "name": "Unbenannt",
      "length": 0.6626730988343392,
      "center": {
        "lat": 37.2346698,
        "lon": -3.4980894
      },
      "difficulty": 70,
      "surface": "dirt",
      "tracktype": "grade3",
      "tags": {
        "highway": "track",
        "surface": "dirt",
        "tracktype": "grade3"
      }
    },
    {
      "id": 667535041,
      "name": "Camino de servicio del Sotillo",
      "length": 1.2787290498394945,
      "center": {
        "lat": 37.2002415,
        "lon": -3.461172
      },
      "difficulty": 60,
      "surface": "unpaved",
      "tracktype": "grade3",
      "tags": {
        "bicycle": "yes",
        "foot": "yes",
        "highway": "track",
        "horse": "yes",
        "motor_vehicle": "yes",
        "name": "Camino de servicio del Sotillo",
        "surface": "unpaved",
        "tracktype": "grade3"
      }
    },
    {
      "id": 685610569,
      "name": "Unbenannt",
      "length": 0.7049780073903152,
      "center": {
        "lat": 36.9111665,
        "lon": -3.3834025
      },
      "difficulty": 50,
      "surface": "unpaved",
      "tracktype": "grade2",
      "tags": {
        "bicycle": "yes",
        "highway": "track",
        "surface": "unpaved",
        "tracktype": "grade2"
      }
    },
    {
      "id": 685610578,
      "name": "Unbenannt",
      "length": 7.000699617269453,
      "center": {
        "lat": 36.9072096,
        "lon": -3.3604101
      },
      "difficulty": 45,
      "surface": "gravel",
      "tracktype": "grade2",
      "tags": {
        "highway": "track",
        "surface": "gravel",
        "tracktype": "grade2"
      }
    },
    {
      "id": 689178753,
      "name": "Unbenannt",
      "length": 3.3853746864218137,
      "center": {
        "lat": 37.2287062,
        "lon": -3.0601147
      },
      "difficulty": 50,
      "surface": "unpaved",
      "tracktype": "grade2",
      "tags": {
        "highway": "track",
        "surface": "unpaved",
        "tracktype": "grade2"
      }
    },
    {
      "id": 696307374,
      "name": "Unbenannt",
      "length": 1.3783523052343107,
      "center": {
        "lat": 37.2381187,
        "lon": -3.0756671
      },
      "difficulty": 60,
      "surface": "unpaved",
      "tracktype": "grade3",
      "tags": {
        "highway": "track",
        "surface": "unpaved",
        "tracktype": "grade3"
      }
    },
    {
      "id": 743456710,
      "name": "Unbenannt",
      "length": 0.582574338367116,
      "center": {
        "lat": 36.9878988,
        "lon": -3.0772518
      },
      "difficulty": 70,
      "surface": "dirt",
      "tracktype": "grade3",
      "tags": {
        "highway": "track",
        "surface": "dirt",
        "tracktype": "grade3"
      }
    },
    {
      "id": 743456725,
      "name": "Unbenannt",
      "length": 0.7185196507505046,
      "center": {
        "lat": 36.9907975,
        "lon": -3.086548
      },
      "difficulty": 70,
      "surface": "dirt",
      "tracktype": "grade3",
      "tags": {
        "check_date:surface": "2023-11-17",
        "highway": "track",
        "surface": "dirt",
        "tracktype": "grade3"
      }
    },
    {
      "id": 763765775,
      "name": "Rambla",
      "length": 1.1688020102973773,
      "center": {
        "lat": 36.8351314,
        "lon": -2.9465205
      },
      "difficulty": 65,
      "surface": "ground",
      "tracktype": "grade3",
      "tags": {
        "highway": "track",
        "name": "Rambla",
        "smoothness": "bad",
        "surface": "ground",
        "tracktype": "grade3"
      }
    },
    {
      "id": 776057525,
      "name": "Unbenannt",
      "length": 0.5397374588679316,
      "center": {
        "lat": 36.9665336,
        "lon": -3.3523355
      },
      "difficulty": 45,
      "surface": "gravel",
      "tracktype": "grade2",
      "tags": {
        "highway": "track",
        "surface": "gravel",
        "tracktype": "grade2"
      }
    },
    {
      "id": 778219662,
      "name": "Unbenannt",
      "length": 0.7753933332334862,
      "center": {
        "lat": 36.9139064,
        "lon": -3.4763036
      },
      "difficulty": 40,
      "surface": "compacted",
      "tracktype": "grade2",
      "tags": {
        "highway": "track",
        "surface": "compacted",
        "tracktype": "grade2"
      }
    },
    {
      "id": 807977292,
      "name": "Unbenannt",
      "length": 0.7633780637374621,
      "center": {
        "lat": 37.2194035,
        "lon": -3.132561
      },
      "difficulty": 55,
      "surface": "gravel",
      "tracktype": "grade3",
      "tags": {
        "bicycle": "yes",
        "highway": "track",
        "incline": "up",
        "surface": "gravel",
        "tracktype": "grade3"
      }
    },
    {
      "id": 807977293,
      "name": "Unbenannt",
      "length": 0.9079291451486022,
      "center": {
        "lat": 37.2188125,
        "lon": -3.137271
      },
      "difficulty": 55,
      "surface": "gravel",
      "tracktype": "grade3",
      "tags": {
        "bicycle": "yes",
        "highway": "track",
        "incline": "down",
        "surface": "gravel",
        "tracktype": "grade3"
      }
    },
    {
      "id": 894044192,
      "name": "Unbenannt",
      "length": 1.253726074635323,
      "center": {
        "lat": 36.9353452,
        "lon": -3.502544
      },
      "difficulty": 45,
      "surface": "gravel",
      "tracktype": "grade2",
      "tags": {
        "highway": "track",
        "surface": "gravel",
        "tracktype": "grade2"
      }
    },
    {
      "id": 947858910,
      "name": "Carril de Güéjar Sierra al Tocón de Quéntar",
      "length": 3.1947818435576973,
      "center": {
        "lat": 37.193162,
        "lon": -3.342272
      },
      "difficulty": 65,
      "surface": "ground",
      "tracktype": "grade3",
      "tags": {
        "highway": "unclassified",
        "name": "Carril de Güéjar Sierra al Tocón de Quéntar",
        "source": "GPS",
        "surface": "ground",
        "tracktype": "grade3"
      }
    },
    {
      "id": 974148566,
      "name": "Camino Llano de los Pozos",
      "length": 3.904109777867943,
      "center": {
        "lat": 36.8154691,
        "lon": -3.4880802
      },
      "difficulty": 70,
      "surface": "dirt",
      "tracktype": "grade3",
      "tags": {
        "highway": "track",
        "name": "Camino Llano de los Pozos",
        "surface": "dirt",
        "tracktype": "grade3"
      }
    },
    {
      "id": 1016406544,
      "name": "Unbenannt",
      "length": 1.4832898812241992,
      "center": {
        "lat": 36.9782214,
        "lon": -2.9145066
      },
      "difficulty": 40,
      "surface": "compacted",
      "tracktype": "grade2",
      "tags": {
        "highway": "track",
        "smoothness": "good",
        "surface": "compacted",
        "tracktype": "grade2"
      }
    },
    {
      "id": 1019264250,
      "name": "Unbenannt",
      "length": 0.5095650166442931,
      "center": {
        "lat": 37.2876869,
        "lon": -3.4974229
      },
      "difficulty": 40,
      "surface": "compacted",
      "tracktype": "grade2",
      "tags": {
        "highway": "track",
        "noname": "yes",
        "surface": "compacted",
        "tracktype": "grade2"
      }
    },
    {
      "id": 1051865387,
      "name": "Unbenannt",
      "length": 1.711916651393382,
      "center": {
        "lat": 37.3039692,
        "lon": -2.8823425
      },
      "difficulty": 40,
      "surface": "compacted",
      "tracktype": "grade2",
      "tags": {
        "highway": "track",
        "surface": "compacted",
        "tracktype": "grade2"
      }
    },
    {
      "id": 1054468537,
      "name": "Unbenannt",
      "length": 0.7154700442191784,
      "center": {
        "lat": 37.2381022,
        "lon": -2.7993929
      },
      "difficulty": 65,
      "surface": "ground",
      "tracktype": "grade3",
      "tags": {
        "highway": "track",
        "surface": "ground",
        "tracktype": "grade3"
      }
    },
    {
      "id": 1065087101,
      "name": "Unbenannt",
      "length": 1.2366317154565143,
      "center": {
        "lat": 36.8841353,
        "lon": -3.4827129
      },
      "difficulty": 70,
      "surface": "dirt",
      "tracktype": "grade3",
      "tags": {
        "highway": "track",
        "surface": "dirt",
        "tracktype": "grade3"
      }
    },
    {
      "id": 1083319916,
      "name": "Unbenannt",
      "length": 0.8325335227082457,
      "center": {
        "lat": 36.8897479,
        "lon": -2.8659703
      },
      "difficulty": 55,
      "surface": "gravel",
      "tracktype": "grade3",
      "tags": {
        "highway": "track",
        "surface": "gravel",
        "tracktype": "grade3"
      }
    },
    {
      "id": 1125808723,
      "name": "Cañada Real Huétor a Güéjar",
      "length": 2.6293834443324733,
      "center": {
        "lat": 37.234439,
        "lon": -3.353884
      },
      "difficulty": 65,
      "surface": "ground",
      "tracktype": "grade3",
      "tags": {
        "highway": "unclassified",
        "name": "Cañada Real Huétor a Güéjar",
        "source": "GPS",
        "surface": "ground",
        "tracktype": "grade3"
      }
    },
    {
      "id": 1150459004,
      "name": "Unbenannt",
      "length": 2.8991668571591975,
      "center": {
        "lat": 37.2442286,
        "lon": -3.2499171
      },
      "difficulty": 50,
      "surface": "unpaved",
      "tracktype": "grade2",
      "tags": {
        "highway": "track",
        "surface": "unpaved",
        "tracktype": "grade2"
      }
    },
    {
      "id": 1213827278,
      "name": "Unbenannt",
      "length": 1.3982363775762006,
      "center": {
        "lat": 36.9883087,
        "lon": -3.1005088
      },
      "difficulty": 70,
      "surface": "dirt",
      "tracktype": "grade3",
      "tags": {
        "highway": "track",
        "surface": "dirt",
        "tracktype": "grade3"
      }
    },
    {
      "id": 1213833495,
      "name": "Unbenannt",
      "length": 0.9917543769740974,
      "center": {
        "lat": 36.9809021,
        "lon": -3.0972754
      },
      "difficulty": 70,
      "surface": "dirt",
      "tracktype": "grade3",
      "tags": {
        "highway": "track",
        "surface": "dirt",
        "tracktype": "grade3"
      }
    },
    {
      "id": 1214086200,
      "name": "Unbenannt",
      "length": 0.5394338903035218,
      "center": {
        "lat": 36.9889358,
        "lon": -3.0953882
      },
      "difficulty": 70,
      "surface": "dirt",
      "tracktype": "grade3",
      "tags": {
        "highway": "track",
        "surface": "dirt",
        "tracktype": "grade3"
      }
    },
    {
      "id": 1250631466,
      "name": "Unbenannt",
      "length": 0.763610873656147,
      "center": {
        "lat": 36.9530259,
        "lon": -3.2392559
      },
      "difficulty": 50,
      "surface": "compacted",
      "tracktype": "grade3",
      "tags": {
        "highway": "track",
        "smoothness": "horrible",
        "surface": "compacted",
        "tracktype": "grade3"
      }
    },
    {
      "id": 1299236496,
      "name": "Unbenannt",
      "length": 0.874287244339683,
      "center": {
        "lat": 37.1783756,
        "lon": -2.8351462
      },
      "difficulty": 50,
      "surface": "unpaved",
      "tracktype": "grade2",
      "tags": {
        "bicycle": "yes",
        "foot": "yes",
        "highway": "track",
        "surface": "unpaved",
        "tracktype": "grade2"
      }
    },
    {
      "id": 1323100809,
      "name": "Unbenannt",
      "length": 1.6989046104967849,
      "center": {
        "lat": 37.2684618,
        "lon": -3.2474115
      },
      "difficulty": 50,
      "surface": "unpaved",
      "tracktype": "grade2",
      "tags": {
        "highway": "track",
        "surface": "unpaved",
        "tracktype": "grade2"
      }
    },
    {
      "id": 1335601850,
      "name": "Unbenannt",
      "length": 0.638904710212843,
      "center": {
        "lat": 36.9536667,
        "lon": -3.3027366
      },
      "difficulty": 70,
      "surface": "dirt",
      "tracktype": "grade3",
      "tags": {
        "bicycle": "yes",
        "highway": "track",
        "mtb": "yes",
        "source": "GPS",
        "surface": "dirt",
        "tracktype": "grade3"
      }
    },
    {
      "id": 1414972232,
      "name": "Lugar Cortijo Bellugas",
      "length": 0.6982933232579864,
      "center": {
        "lat": 36.8974884,
        "lon": -3.3733651
      },
      "difficulty": 45,
      "surface": "gravel",
      "tracktype": "grade2",
      "tags": {
        "highway": "track",
        "name": "Lugar Cortijo Bellugas",
        "surface": "gravel",
        "tracktype": "grade2"
      }
    },
    {
      "id": 1418405635,
      "name": "Unbenannt",
      "length": 0.858494319968647,
      "center": {
        "lat": 37.0022702,
        "lon": -3.0693592
      },
      "difficulty": 70,
      "surface": "dirt",
      "tracktype": "grade3",
      "tags": {
        "highway": "track",
        "smoothness": "very_bad",
        "surface": "dirt",
        "tracktype": "grade3"
      }
    },
    {
      "id": 1422519426,
      "name": "Unbenannt",
      "length": 1.2223922031629066,
      "center": {
        "lat": 37.2857497,
        "lon": -2.918177
      },
      "difficulty": 40,
      "surface": "compacted",
      "tracktype": "grade2",
      "tags": {
        "highway": "track",
        "source": "PNOA",
        "source:date": "2008",
        "surface": "compacted",
        "tracktype": "grade2"
      }
    },
    {
      "id": 1422519433,
      "name": "Unbenannt",
      "length": 0.6815993355997992,
      "center": {
        "lat": 37.2941648,
        "lon": -2.9319387
      },
      "difficulty": 40,
      "surface": "compacted",
      "tracktype": "grade2",
      "tags": {
        "highway": "track",
        "surface": "compacted",
        "tracktype": "grade2"
      }
    },
    {
      "id": 1431691974,
      "name": "Unbenannt",
      "length": 0.7011108928101608,
      "center": {
        "lat": 36.9885984,
        "lon": -3.1044484
      },
      "difficulty": 45,
      "surface": "gravel",
      "tracktype": "grade2",
      "tags": {
        "highway": "track",
        "surface": "gravel",
        "tracktype": "grade2"
      }
    }
  ]
}